GLOBALSTAR M057         
1 25943U 99058A   25220.91329999 -.00000097  00000+0 -36823-4 0  9999
2 25943  51.9960 198.5673 0002601 119.1915 240.9195 12.24827736173395
GLOBALSTAR M059         
1 25944U 99058B   25220.89021022 -.00000030  00000+0  69223-3 0  9998
2 25944  52.0023  64.5941 0001381  65.4664 307.6640 11.99980851580371
GLOBALSTAR M056         
1 25945U 99058C   25220.84557203 -.00000111  00000+0 -27471-3 0  9999
2 25945  51.9968  65.3232 0000516 347.3871  25.7221 12.04779860168975
GLOBALSTAR M031         
1 25946U 99058D   25220.51295975 -.00000124  00000+0 -34198-3 0  9997
2 25946  51.9984 315.4317 0000791 272.8711 101.9236 12.16039300170918
GLOBALSTAR M039         
1 25961U 99062A   25220.89888147 -.00000071  00000+0  18402-3 0  9999
2 25961  51.9843 108.1669 0003170  94.6446 265.4783 12.62330354186874
GLOBALSTAR M034         
1 25962U 99062B   25220.51763013 -.00000052  00000+0  46129-3 0  9999
2 25962  51.9842 235.3596 0014115 140.7405  27.4279 11.79447595144564
GLOBALSTAR M029         
1 25963U 99062C   25220.76826331 -.00000052  00000+0  41980-3 0  9990
2 25963  51.9826 312.9182 0002536 209.5381 301.5773 11.99899295175436
GLOBALSTAR M061         
1 25964U 99062D   25220.88106528 -.00000088  00000+0 -12104-3 0  9999
2 25964  51.9801  59.1476 0006820  64.9925  40.7523 11.76775832127384
